<?xml version="1.0" encoding="UTF-8"?>
<ndm xmlns:xsi="http://www.w3.org/2001/XMLSchema-instance" xsi:noNamespaceSchemaLocation="https://sanaregistry.org/r/ndmxml_unqualified/ndmxml-2.0.0-master-2.0.xsd">
<omm id="CCSDS_OMM_VERS" version="2.0">
<header><CREATION_DATE/><ORIGINATOR/></header><body><segment><metadata><OBJECT_NAME>QIANFAN-97</OBJECT_NAME><OBJECT_ID>2025-233G</OBJECT_ID><CENTER_NAME>EARTH</CENTER_NAME><REF_FRAME>TEME</REF_FRAME><TIME_SYSTEM>UTC</TIME_SYSTEM><MEAN_ELEMENT_THEORY>SGP4</MEAN_ELEMENT_THEORY></metadata><data><meanElements><EPOCH>2025-12-22T11:34:06.267936</EPOCH><MEAN_MOTION>13.65831814</MEAN_MOTION><ECCENTRICITY>.00174619</ECCENTRICITY><INCLINATION>88.9933</INCLINATION><RA_OF_ASC_NODE>61.1255</RA_OF_ASC_NODE><ARG_OF_PERICENTER>34.7679</ARG_OF_PERICENTER><MEAN_ANOMALY>325.4618</MEAN_ANOMALY></meanElements><tleParameters><EPHEMERIS_TYPE>0</EPHEMERIS_TYPE><CLASSIFICATION_TYPE>U</CLASSIFICATION_TYPE><NORAD_CAT_ID>66039</NORAD_CAT_ID><ELEMENT_SET_NO>999</ELEMENT_SET_NO><REV_AT_EPOCH>931</REV_AT_EPOCH><BSTAR>-.27221133E+1</BSTAR><MEAN_MOTION_DOT>-.2084456E-1</MEAN_MOTION_DOT><MEAN_MOTION_DDOT>0</MEAN_MOTION_DDOT></tleParameters></data></segment></body></omm>
<omm id="CCSDS_OMM_VERS" version="2.0">
<header><CREATION_DATE/><ORIGINATOR/></header><body><segment><metadata><OBJECT_NAME>QIANFAN-98</OBJECT_NAME><OBJECT_ID>2025-233H</OBJECT_ID><CENTER_NAME>EARTH</CENTER_NAME><REF_FRAME>TEME</REF_FRAME><TIME_SYSTEM>UTC</TIME_SYSTEM><MEAN_ELEMENT_THEORY>SGP4</MEAN_ELEMENT_THEORY></metadata><data><meanElements><EPOCH>2025-12-22T06:32:31.244640</EPOCH><MEAN_MOTION>13.85322154</MEAN_MOTION><ECCENTRICITY>.00145059</ECCENTRICITY><INCLINATION>89.0086</INCLINATION><RA_OF_ASC_NODE>61.0900</RA_OF_ASC_NODE><ARG_OF_PERICENTER>14.8664</ARG_OF_PERICENTER><MEAN_ANOMALY>345.2930</MEAN_ANOMALY></meanElements><tleParameters><EPHEMERIS_TYPE>0</EPHEMERIS_TYPE><CLASSIFICATION_TYPE>U</CLASSIFICATION_TYPE><NORAD_CAT_ID>66040</NORAD_CAT_ID><ELEMENT_SET_NO>999</ELEMENT_SET_NO><REV_AT_EPOCH>933</REV_AT_EPOCH><BSTAR>-.20090509E+1</BSTAR><MEAN_MOTION_DOT>-.2122187E-1</MEAN_MOTION_DOT><MEAN_MOTION_DDOT>0</MEAN_MOTION_DDOT></tleParameters></data></segment></body></omm>
<omm id="CCSDS_OMM_VERS" version="2.0">
<header><CREATION_DATE/><ORIGINATOR/></header><body><segment><metadata><OBJECT_NAME>QIANFAN-99</OBJECT_NAME><OBJECT_ID>2025-233J</OBJECT_ID><CENTER_NAME>EARTH</CENTER_NAME><REF_FRAME>TEME</REF_FRAME><TIME_SYSTEM>UTC</TIME_SYSTEM><MEAN_ELEMENT_THEORY>SGP4</MEAN_ELEMENT_THEORY></metadata><data><meanElements><EPOCH>2025-12-23T19:33:09.703296</EPOCH><MEAN_MOTION>13.63315225</MEAN_MOTION><ECCENTRICITY>.00144369</ECCENTRICITY><INCLINATION>88.9973</INCLINATION><RA_OF_ASC_NODE>60.9880</RA_OF_ASC_NODE><ARG_OF_PERICENTER>15.8538</ARG_OF_PERICENTER><MEAN_ANOMALY>344.3069</MEAN_ANOMALY></meanElements><tleParameters><EPHEMERIS_TYPE>0</EPHEMERIS_TYPE><CLASSIFICATION_TYPE>U</CLASSIFICATION_TYPE><NORAD_CAT_ID>66041</NORAD_CAT_ID><ELEMENT_SET_NO>999</ELEMENT_SET_NO><REV_AT_EPOCH>949</REV_AT_EPOCH><BSTAR>-.29336464E+1</BSTAR><MEAN_MOTION_DOT>-.215153E-1</MEAN_MOTION_DOT><MEAN_MOTION_DDOT>0</MEAN_MOTION_DDOT></tleParameters></data></segment></body></omm>
<omm id="CCSDS_OMM_VERS" version="2.0">
<header><CREATION_DATE/><ORIGINATOR/></header><body><segment><metadata><OBJECT_NAME>QIANFAN-100</OBJECT_NAME><OBJECT_ID>2025-233K</OBJECT_ID><CENTER_NAME>EARTH</CENTER_NAME><REF_FRAME>TEME</REF_FRAME><TIME_SYSTEM>UTC</TIME_SYSTEM><MEAN_ELEMENT_THEORY>SGP4</MEAN_ELEMENT_THEORY></metadata><data><meanElements><EPOCH>2025-12-22T06:40:11.836992</EPOCH><MEAN_MOTION>13.76059257</MEAN_MOTION><ECCENTRICITY>.0015994</ECCENTRICITY><INCLINATION>88.9938</INCLINATION><RA_OF_ASC_NODE>61.0772</RA_OF_ASC_NODE><ARG_OF_PERICENTER>43.3831</ARG_OF_PERICENTER><MEAN_ANOMALY>316.8590</MEAN_ANOMALY></meanElements><tleParameters><EPHEMERIS_TYPE>0</EPHEMERIS_TYPE><CLASSIFICATION_TYPE>U</CLASSIFICATION_TYPE><NORAD_CAT_ID>66042</NORAD_CAT_ID><ELEMENT_SET_NO>999</ELEMENT_SET_NO><REV_AT_EPOCH>932</REV_AT_EPOCH><BSTAR>-.23399637E+1</BSTAR><MEAN_MOTION_DOT>-.2116366E-1</MEAN_MOTION_DOT><MEAN_MOTION_DDOT>0</MEAN_MOTION_DDOT></tleParameters></data></segment></body></omm>
<omm id="CCSDS_OMM_VERS" version="2.0">
<header><CREATION_DATE/><ORIGINATOR/></header><body><segment><metadata><OBJECT_NAME>QIANFAN-101</OBJECT_NAME><OBJECT_ID>2025-233L</OBJECT_ID><CENTER_NAME>EARTH</CENTER_NAME><REF_FRAME>TEME</REF_FRAME><TIME_SYSTEM>UTC</TIME_SYSTEM><MEAN_ELEMENT_THEORY>SGP4</MEAN_ELEMENT_THEORY></metadata><data><meanElements><EPOCH>2025-12-24T05:44:04.466976</EPOCH><MEAN_MOTION>14.26682591</MEAN_MOTION><ECCENTRICITY>.00146621</ECCENTRICITY><INCLINATION>88.9950</INCLINATION><RA_OF_ASC_NODE>60.7055</RA_OF_ASC_NODE><ARG_OF_PERICENTER>6.7869</ARG_OF_PERICENTER><MEAN_ANOMALY>353.3520</MEAN_ANOMALY></meanElements><tleParameters><EPHEMERIS_TYPE>0</EPHEMERIS_TYPE><CLASSIFICATION_TYPE>U</CLASSIFICATION_TYPE><NORAD_CAT_ID>66043</NORAD_CAT_ID><ELEMENT_SET_NO>999</ELEMENT_SET_NO><REV_AT_EPOCH>968</REV_AT_EPOCH><BSTAR>.1026614E-3</BSTAR><MEAN_MOTION_DOT>.263E-5</MEAN_MOTION_DOT><MEAN_MOTION_DDOT>0</MEAN_MOTION_DDOT></tleParameters></data></segment></body></omm>
<omm id="CCSDS_OMM_VERS" version="2.0">
<header><CREATION_DATE/><ORIGINATOR/></header><body><segment><metadata><OBJECT_NAME>QIANFAN-102</OBJECT_NAME><OBJECT_ID>2025-233M</OBJECT_ID><CENTER_NAME>EARTH</CENTER_NAME><REF_FRAME>TEME</REF_FRAME><TIME_SYSTEM>UTC</TIME_SYSTEM><MEAN_ELEMENT_THEORY>SGP4</MEAN_ELEMENT_THEORY></metadata><data><meanElements><EPOCH>2025-12-22T23:50:03.021792</EPOCH><MEAN_MOTION>13.67501855</MEAN_MOTION><ECCENTRICITY>.00191924</ECCENTRICITY><INCLINATION>88.9944</INCLINATION><RA_OF_ASC_NODE>61.0565</RA_OF_ASC_NODE><ARG_OF_PERICENTER>29.2530</ARG_OF_PERICENTER><MEAN_ANOMALY>330.9701</MEAN_ANOMALY></meanElements><tleParameters><EPHEMERIS_TYPE>0</EPHEMERIS_TYPE><CLASSIFICATION_TYPE>U</CLASSIFICATION_TYPE><NORAD_CAT_ID>66044</NORAD_CAT_ID><ELEMENT_SET_NO>999</ELEMENT_SET_NO><REV_AT_EPOCH>939</REV_AT_EPOCH><BSTAR>-.26069797E+1</BSTAR><MEAN_MOTION_DOT>-.2053684E-1</MEAN_MOTION_DOT><MEAN_MOTION_DDOT>0</MEAN_MOTION_DDOT></tleParameters></data></segment></body></omm>
<omm id="CCSDS_OMM_VERS" version="2.0">
<header><CREATION_DATE/><ORIGINATOR/></header><body><segment><metadata><OBJECT_NAME>QIANFAN-103</OBJECT_NAME><OBJECT_ID>2025-233N</OBJECT_ID><CENTER_NAME>EARTH</CENTER_NAME><REF_FRAME>TEME</REF_FRAME><TIME_SYSTEM>UTC</TIME_SYSTEM><MEAN_ELEMENT_THEORY>SGP4</MEAN_ELEMENT_THEORY></metadata><data><meanElements><EPOCH>2025-12-22T15:38:04.980192</EPOCH><MEAN_MOTION>13.65270582</MEAN_MOTION><ECCENTRICITY>.00152771</ECCENTRICITY><INCLINATION>88.9947</INCLINATION><RA_OF_ASC_NODE>61.1159</RA_OF_ASC_NODE><ARG_OF_PERICENTER>28.8335</ARG_OF_PERICENTER><MEAN_ANOMALY>331.3666</MEAN_ANOMALY></meanElements><tleParameters><EPHEMERIS_TYPE>0</EPHEMERIS_TYPE><CLASSIFICATION_TYPE>U</CLASSIFICATION_TYPE><NORAD_CAT_ID>66045</NORAD_CAT_ID><ELEMENT_SET_NO>999</ELEMENT_SET_NO><REV_AT_EPOCH>933</REV_AT_EPOCH><BSTAR>-.27201806E+1</BSTAR><MEAN_MOTION_DOT>-.206496E-1</MEAN_MOTION_DOT><MEAN_MOTION_DDOT>0</MEAN_MOTION_DDOT></tleParameters></data></segment></body></omm>
<omm id="CCSDS_OMM_VERS" version="2.0">
<header><CREATION_DATE/><ORIGINATOR/></header><body><segment><metadata><OBJECT_NAME>QIANFAN-104</OBJECT_NAME><OBJECT_ID>2025-233P</OBJECT_ID><CENTER_NAME>EARTH</CENTER_NAME><REF_FRAME>TEME</REF_FRAME><TIME_SYSTEM>UTC</TIME_SYSTEM><MEAN_ELEMENT_THEORY>SGP4</MEAN_ELEMENT_THEORY></metadata><data><meanElements><EPOCH>2025-12-23T01:54:26.278848</EPOCH><MEAN_MOTION>13.67193504</MEAN_MOTION><ECCENTRICITY>.00176957</ECCENTRICITY><INCLINATION>88.9951</INCLINATION><RA_OF_ASC_NODE>61.0519</RA_OF_ASC_NODE><ARG_OF_PERICENTER>33.1203</ARG_OF_PERICENTER><MEAN_ANOMALY>327.1062</MEAN_ANOMALY></meanElements><tleParameters><EPHEMERIS_TYPE>0</EPHEMERIS_TYPE><CLASSIFICATION_TYPE>U</CLASSIFICATION_TYPE><NORAD_CAT_ID>66046</NORAD_CAT_ID><ELEMENT_SET_NO>999</ELEMENT_SET_NO><REV_AT_EPOCH>940</REV_AT_EPOCH><BSTAR>-.23226532E+1</BSTAR><MEAN_MOTION_DOT>-.1815274E-1</MEAN_MOTION_DOT><MEAN_MOTION_DDOT>0</MEAN_MOTION_DDOT></tleParameters></data></segment></body></omm>

</ndm>
