QIANFAN-97              
1 66039U 25233G   25356.48201699 -.02084456  00000+0 -27221+1 0  9993
2 66039  88.9933  61.1255 0017461  34.7679 325.4618 13.65831814  9313
QIANFAN-98              
1 66040U 25233H   25356.27258385 -.02122187  00000+0 -20091+1 0  9998
2 66040  89.0086  61.0900 0014505  14.8664 345.2930 13.85322154  9334
QIANFAN-99              
1 66041U 25233J   25357.81469564 -.02151530  00000+0 -29336+1 0  9998
2 66041  88.9973  60.9880 0014436  15.8538 344.3069 13.63315225  9494
QIANFAN-100             
1 66042U 25233K   25356.27791478 -.02116366  00000+0 -23400+1 0  9994
2 66042  88.9938  61.0772 0015994  43.3831 316.8590 13.76059257  9329
QIANFAN-101             
1 66043U 25233L   25358.23894059  .00000263  00000+0  10266-3 0  9995
2 66043  88.9950  60.7055 0014662   6.7869 353.3520 14.26682591  9686
QIANFAN-102             
1 66044U 25233M   25356.99309053 -.02053684  00000+0 -26070+1 0  9998
2 66044  88.9944  61.0565 0019192  29.2530 330.9701 13.67501855  9395
QIANFAN-103             
1 66045U 25233N   25356.65144653 -.02064960  00000+0 -27202+1 0  9992
2 66045  88.9947  61.1159 0015277  28.8335 331.3666 13.65270582  9334
QIANFAN-104             
1 66046U 25233P   25357.07947082 -.01815274  00000+0 -23227+1 0  9991
2 66046  88.9951  61.0519 0017695  33.1203 327.1062 13.67193504  9409
